{"type": "FeatureCollection", "features": [ {"type": "Feature", "properties": {"norad_id": 30035, "name": "FENGYUN 1C DEB", "group": "fengyun-1c-debris", "lat": -21.146343695644862, "lon": -79.04320610697528, "alt_km": 711.023758862958, "timestamp": "2025-12-27T09:28:56.749635+00:00", "meta": {"OBJECT_NAME": "FENGYUN 1C DEB", "OBJECT_ID": "1999-025NL", "EPOCH": "2025-12-26T17:07:38.955648", "MEAN_MOTION": 14.36982364, "ECCENTRICITY": 0.0115124, "INCLINATION": 99.2717, "RA_OF_ASC_NODE": 276.6004, "ARG_OF_PERICENTER": 21.4745, "MEAN_ANOMALY": 34.7758, "EPHEMERIS_TYPE": 0, "CLASSIFICATION_TYPE": "U", "NORAD_CAT_ID": 30035, "ELEMENT_SET_NO": 999, "REV_AT_EPOCH": 99324, "BSTAR": 0.00010059574, "MEAN_MOTION_DOT": 2.68e-06, "MEAN_MOTION_DDOT": 0}, "tle": {"line1": "1 30035U 99025NL  25360.71364532  .00000268  00000+0  10060-3 0  9998", "line2": "2 30035  99.2717 276.6004 0115124  21.4745  34.7758 14.36982364993247"}}, "geometry": {"type": "Point", "coordinates": [-79.04320610697528, -21.146343695644862]}}, {"type": "Feature", "properties": {"norad_id": 30036, "name": "FENGYUN 1C DEB", "group": "fengyun-1c-debris", "lat": -16.890915994999684, "lon": -154.41349214831956, "alt_km": 629.5535731831969, "timestamp": "2025-12-27T09:28:56.749645+00:00", "meta": {"OBJECT_NAME": "FENGYUN 1C DEB", "OBJECT_ID": "1999-025NM", "EPOCH": "2025-12-27T00:33:05.331168", "MEAN_MOTION": 14.46229779, "ECCENTRICITY": 0.0190595, "INCLINATION": 98.252, "RA_OF_ASC_NODE": 27.7497, "ARG_OF_PERICENTER": 164.1274, "MEAN_ANOMALY": 255.324, "EPHEMERIS_TYPE": 0, "CLASSIFICATION_TYPE": "U", "NORAD_CAT_ID": 30036, "ELEMENT_SET_NO": 999, "REV_AT_EPOCH": 99383, "BSTAR": 0.00041575, "MEAN_MOTION_DOT": 1.815e-05, "MEAN_MOTION_DDOT": 0}, "tle": {"line1": "1 30036U 99025NM  25361.02297837  .00001815  00000+0  41575-3 0  9991", "line2": "2 30036  98.2520  27.7497 0190595 164.1274 255.3240 14.46229779993834"}}, "geometry": {"type": "Point", "coordinates": [-154.41349214831956, -16.890915994999684]}}, {"type": "Feature", "properties": {"norad_id": 30037, "name": "FENGYUN 1C DEB", "group": "fengyun-1c-debris", "lat": -47.21607405808188, "lon": -14.153416738170781, "alt_km": 719.876953849589, "timestamp": "2025-12-27T09:28:56.749655+00:00", "meta": {"OBJECT_NAME": "FENGYUN 1C DEB", "OBJECT_ID": "1999-025NN", "EPOCH": "2025-12-26T22:16:19.700256", "MEAN_MOTION": 14.34140754, "ECCENTRICITY": 0.0173743, "INCLINATION": 98.3852, "RA_OF_ASC_NODE": 336.2228, "ARG_OF_PERICENTER": 13.0202, "MEAN_ANOMALY": 50.6981, "EPHEMERIS_TYPE": 0, "CLASSIFICATION_TYPE": "U", "NORAD_CAT_ID": 30037, "ELEMENT_SET_NO": 999, "REV_AT_EPOCH": 98991, "BSTAR": 0.00031089, "MEAN_MOTION_DOT": 9.84e-06, "MEAN_MOTION_DDOT": 0}, "tle": {"line1": "1 30037U 99025NN  25360.92800579  .00000984  00000+0  31089-3 0  9998", "line2": "2 30037  98.3852 336.2228 0173743  13.0202  50.6981 14.34140754989917"}}, "geometry": {"type": "Point", "coordinates": [-14.153416738170781, -47.21607405808188]}}, {"type": "Feature", "properties": {"norad_id": 30038, "name": "FENGYUN 1C DEB", "group": "fengyun-1c-debris", "lat": -74.52662601622889, "lon": 136.56154933940658, "alt_km": 942.6666863361188, "timestamp": "2025-12-27T09:28:56.749665+00:00", "meta": {"OBJECT_NAME": "FENGYUN 1C DEB", "OBJECT_ID": "1999-025NP", "EPOCH": "2025-12-26T18:04:58.782432", "MEAN_MOTION": 14.39328408, "ECCENTRICITY": 0.02578315, "INCLINATION": 98.3697, "RA_OF_ASC_NODE": 348.0633, "ARG_OF_PERICENTER": 60.8642, "MEAN_ANOMALY": 114.1776, "EPHEMERIS_TYPE": 0, "CLASSIFICATION_TYPE": "U", "NORAD_CAT_ID": 30038, "ELEMENT_SET_NO": 999, "REV_AT_EPOCH": 99092, "BSTAR": 0.00033589931, "MEAN_MOTION_DOT": 1.491e-05, "MEAN_MOTION_DDOT": 0}, "tle": {"line1": "1 30038U 99025NP  25360.75345813  .00001491  00000+0  33590-3 0  9998", "line2": "2 30038  98.3697 348.0633 0257831  60.8642 114.1776 14.39328408990925"}}, "geometry": {"type": "Point", "coordinates": [136.56154933940658, -74.52662601622889]}}, {"type": "Feature", "properties": {"norad_id": 30040, "name": "FENGYUN 1C DEB", "group": "fengyun-1c-debris", "lat": -81.32074030080445, "lon": 88.68170397383108, "alt_km": 751.8983663371891, "timestamp": "2025-12-27T09:28:56.749676+00:00", "meta": {"OBJECT_NAME": "FENGYUN 1C DEB", "OBJECT_ID": "1999-025NR", "EPOCH": "2025-12-27T00:09:18.112032", "MEAN_MOTION": 14.37254039, "ECCENTRICITY": 0.0032318, "INCLINATION": 98.2335, "RA_OF_ASC_NODE": 16.774, "ARG_OF_PERICENTER": 269.1252, "MEAN_ANOMALY": 153.8773, "EPHEMERIS_TYPE": 0, "CLASSIFICATION_TYPE": "U", "NORAD_CAT_ID": 30040, "ELEMENT_SET_NO": 999, "REV_AT_EPOCH": 98133, "BSTAR": 0.0019363, "MEAN_MOTION_DOT": 5.766e-05, "MEAN_MOTION_DDOT": 0}, "tle": {"line1": "1 30040U 99025NR  25361.00645963  .00005766  00000+0  19363-2 0  9999", "line2": "2 30040  98.2335  16.7740 0032318 269.1252 153.8773 14.37254039981334"}}, "geometry": {"type": "Point", "coordinates": [88.68170397383108, -81.32074030080445]}}, {"type": "Feature", "properties": {"norad_id": 30041, "name": "FENGYUN 1C DEB", "group": "fengyun-1c-debris", "lat": 32.35005986214309, "lon": 102.66712343335826, "alt_km": 866.9492338176124, "timestamp": "2025-12-27T09:28:56.749686+00:00", "meta": {"OBJECT_NAME": "FENGYUN 1C DEB", "OBJECT_ID": "1999-025NS", "EPOCH": "2025-12-26T06:16:38.510112", "MEAN_MOTION": 14.13209081, "ECCENTRICITY": 0.0035286, "INCLINATION": 99.4669, "RA_OF_ASC_NODE": 107.5356, "ARG_OF_PERICENTER": 179.8588, "MEAN_ANOMALY": 209.5093, "EPHEMERIS_TYPE": 0, "CLASSIFICATION_TYPE": "U", "NORAD_CAT_ID": 30041, "ELEMENT_SET_NO": 999, "REV_AT_EPOCH": 97478, "BSTAR": 0.00048369, "MEAN_MOTION_DOT": 8.62e-06, "MEAN_MOTION_DDOT": 0}, "tle": {"line1": "1 30041U 99025NS  25360.26155683  .00000862  00000+0  48369-3 0  9993", "line2": "2 30041  99.4669 107.5356 0035286 179.8588 209.5093 14.13209081974782"}}, "geometry": {"type": "Point", "coordinates": [102.66712343335826, 32.35005986214309]}}, {"type": "Feature", "properties": {"norad_id": 30043, "name": "FENGYUN 1C DEB", "group": "fengyun-1c-debris", "lat": -54.38117359566071, "lon": -93.14015307515258, "alt_km": 988.7651259777012, "timestamp": "2025-12-27T09:28:56.749697+00:00", "meta": {"OBJECT_NAME": "FENGYUN 1C DEB", "OBJECT_ID": "1999-025NU", "EPOCH": "2025-12-26T18:54:37.136448", "MEAN_MOTION": 14.23643123, "ECCENTRICITY": 0.02833568, "INCLINATION": 98.6266, "RA_OF_ASC_NODE": 98.497, "ARG_OF_PERICENTER": 90.2194, "MEAN_ANOMALY": 273.1454, "EPHEMERIS_TYPE": 0, "CLASSIFICATION_TYPE": "U", "NORAD_CAT_ID": 30043, "ELEMENT_SET_NO": 999, "REV_AT_EPOCH": 97545, "BSTAR": 0.00069281152, "MEAN_MOTION_DOT": 2.346e-05, "MEAN_MOTION_DDOT": 0}, "tle": {"line1": "1 30043U 99025NU  25360.78792982  .00002346  00000+0  69281-3 0  9996", "line2": "2 30043  98.6266  98.4970 0283356  90.2194 273.1454 14.23643123975453"}}, "geometry": {"type": "Point", "coordinates": [-93.14015307515258, -54.38117359566071]}}, {"type": "Feature", "properties": {"norad_id": 30044, "name": "FENGYUN 1C DEB", "group": "fengyun-1c-debris", "lat": 71.88582432222482, "lon": 127.53357994520104, "alt_km": 660.9072221347042, "timestamp": "2025-12-27T09:28:56.749707+00:00", "meta": {"OBJECT_NAME": "FENGYUN 1C DEB", "OBJECT_ID": "1999-025NV", "EPOCH": "2025-12-27T00:43:16.821984", "MEAN_MOTION": 14.50838595, "ECCENTRICITY": 0.0080486, "INCLINATION": 98.2119, "RA_OF_ASC_NODE": 280.9809, "ARG_OF_PERICENTER": 123.0412, "MEAN_ANOMALY": 237.8548, "EPHEMERIS_TYPE": 0, "CLASSIFICATION_TYPE": "U", "NORAD_CAT_ID": 30044, "ELEMENT_SET_NO": 999, "REV_AT_EPOCH": 98246, "BSTAR": 0.0019978, "MEAN_MOTION_DOT": 8.173e-05, "MEAN_MOTION_DDOT": 0}, "tle": {"line1": "1 30044U 99025NV  25361.03005581  .00008173  00000+0  19978-2 0  9999", "line2": "2 30044  98.2119 280.9809 0080486 123.0412 237.8548 14.50838595982462"}}, "geometry": {"type": "Point", "coordinates": [127.53357994520104, 71.88582432222482]}}, {"type": "Feature", "properties": {"norad_id": 30045, "name": "FENGYUN 1C DEB", "group": "fengyun-1c-debris", "lat": 0.7318320443768815, "lon": -142.33644945740394, "alt_km": 841.9069866763821, "timestamp": "2025-12-27T09:28:56.749718+00:00", "meta": {"OBJECT_NAME": "FENGYUN 1C DEB", "OBJECT_ID": "1999-025NW", "EPOCH": "2025-12-27T02:09:11.636064", "MEAN_MOTION": 14.21726677, "ECCENTRICITY": 0.0093595, "INCLINATION": 99.1788, "RA_OF_ASC_NODE": 37.2277, "ARG_OF_PERICENTER": 72.5941, "MEAN_ANOMALY": 343.3725, "EPHEMERIS_TYPE": 0, "CLASSIFICATION_TYPE": "U", "NORAD_CAT_ID": 30045, "ELEMENT_SET_NO": 999, "REV_AT_EPOCH": 96892, "BSTAR": 0.0021606, "MEAN_MOTION_DOT": 4.921e-05, "MEAN_MOTION_DDOT": 0}, "tle": {"line1": "1 30045U 99025NW  25361.08971801  .00004921  00000+0  21606-2 0  9990", "line2": "2 30045  99.1788  37.2277 0093595  72.5941 343.3725 14.21726677968927"}}, "geometry": {"type": "Point", "coordinates": [-142.33644945740394, 0.7318320443768815]}}, {"type": "Feature", "properties": {"norad_id": 30047, "name": "FENGYUN 1C DEB", "group": "fengyun-1c-debris", "lat": 60.38210876717951, "lon": -2.603612754866744, "alt_km": 996.2276623044527, "timestamp": "2025-12-27T09:28:56.749728+00:00", "meta": {"OBJECT_NAME": "FENGYUN 1C DEB", "OBJECT_ID": "1999-025NY", "EPOCH": "2025-12-27T04:36:33.183936", "MEAN_MOTION": 13.94381941, "ECCENTRICITY": 0.0125819, "INCLINATION": 99.9199, "RA_OF_ASC_NODE": 159.2504, "ARG_OF_PERICENTER": 284.2793, "MEAN_ANOMALY": 255.3494, "EPHEMERIS_TYPE": 0, "CLASSIFICATION_TYPE": "U", "NORAD_CAT_ID": 30047, "ELEMENT_SET_NO": 999, "REV_AT_EPOCH": 96117, "BSTAR": 0.00087848, "MEAN_MOTION_DOT": 1.197e-05, "MEAN_MOTION_DDOT": 0}, "tle": {"line1": "1 30047U 99025NY  25361.19205074  .00001197  00000+0  87848-3 0  9999", "line2": "2 30047  99.9199 159.2504 0125819 284.2793 255.3494 13.94381941961178"}}, "geometry": {"type": "Point", "coordinates": [-2.603612754866744, 60.38210876717951]}}]}